ONEWEB-0228             
1 48780U 21045P   24021.14705381  .00000119  00000+0  28080-3 0  9998
2 48780  87.8968  73.9634 0001915 100.6227 259.5119 13.15551203130014
